{
    "type": "FeatureCollection",
    "name": "kantor_polisi_bogor",
    "crs": {
        "type": "name",
        "properties": {
            "name": "urn:ogc:def:crs:OGC:1.3:CRS84"
        }
    },
    "features": [
        {
            "type": "Feature",
            "properties": {
                "nama_kantor": "Polresta Bogor Kota (Kapten Muslihat)",
                "tingkat": "Polresta",
                "wilayah": "Kota Bogor"
            },
            "geometry": {
                "type": "Point",
                "coordinates": [
                    106.790750,
                    -6.594800
                ]
            }
        },
        {
            "type": "Feature",
            "properties": {
                "nama_kantor": "Polresta Bogor Kota (Kedunghalang)",
                "tingkat": "Polresta",
                "wilayah": "Kota Bogor"
            },
            "geometry": {
                "type": "Point",
                "coordinates": [
                    106.812300,
                    -6.550200
                ]
            }
        },
        {
            "type": "Feature",
            "properties": {
                "nama_kantor": "Polres Bogor (Cibinong)",
                "tingkat": "Polres",
                "wilayah": "Kabupaten Bogor"
            },
            "geometry": {
                "type": "Point",
                "coordinates": [
                    106.828400,
                    -6.483700
                ]
            }
        },
        {
            "type": "Feature",
            "properties": {
                "nama_kantor": "Polsek Bogor Tengah",
                "tingkat": "Polsek",
                "wilayah": "Kota Bogor"
            },
            "geometry": {
                "type": "Point",
                "coordinates": [
                    106.791500,
                    -6.591200
                ]
            }
        },
        {
            "type": "Feature",
            "properties": {
                "nama_kantor": "Polsek Bogor Timur",
                "tingkat": "Polsek",
                "wilayah": "Kota Bogor"
            },
            "geometry": {
                "type": "Point",
                "coordinates": [
                    106.817400,
                    -6.611000
                ]
            }
        },
        {
            "type": "Feature",
            "properties": {
                "nama_kantor": "Polsek Bogor Selatan",
                "tingkat": "Polsek",
                "wilayah": "Kota Bogor"
            },
            "geometry": {
                "type": "Point",
                "coordinates": [
                    106.809000,
                    -6.626500
                ]
            }
        },
        {
            "type": "Feature",
            "properties": {
                "nama_kantor": "Polsek Bogor Utara",
                "tingkat": "Polsek",
                "wilayah": "Kota Bogor"
            },
            "geometry": {
                "type": "Point",
                "coordinates": [
                    106.814200,
                    -6.574600
                ]
            }
        },
        {
            "type": "Feature",
            "properties": {
                "nama_kantor": "Polsek Bogor Barat",
                "tingkat": "Polsek",
                "wilayah": "Kota Bogor"
            },
            "geometry": {
                "type": "Point",
                "coordinates": [
                    106.764500,
                    -6.579100
                ]
            }
        },
        {
            "type": "Feature",
            "properties": {
                "nama_kantor": "Polsek Tanah Sareal",
                "tingkat": "Polsek",
                "wilayah": "Kota Bogor"
            },
            "geometry": {
                "type": "Point",
                "coordinates": [
                    106.790100,
                    -6.561500
                ]
            }
        },
        {
            "type": "Feature",
            "properties": {
                "nama_kantor": "Polsek Cibinong",
                "tingkat": "Polsek",
                "wilayah": "Kabupaten Bogor"
            },
            "geometry": {
                "type": "Point",
                "coordinates": [
                    106.852100,
                    -6.480500
                ]
            }
        },
        {
            "type": "Feature",
            "properties": {
                "nama_kantor": "Polsek Ciawi",
                "tingkat": "Polsek",
                "wilayah": "Kabupaten Bogor"
            },
            "geometry": {
                "type": "Point",
                "coordinates": [
                    106.851000,
                    -6.657200
                ]
            }
        },
        {
            "type": "Feature",
            "properties": {
                "nama_kantor": "Polsek Cisarua",
                "tingkat": "Polsek",
                "wilayah": "Kabupaten Bogor"
            },
            "geometry": {
                "type": "Point",
                "coordinates": [
                    106.931800,
                    -6.691400
                ]
            }
        },
        {
            "type": "Feature",
            "properties": {
                "nama_kantor": "Polsek Megamendung",
                "tingkat": "Polsek",
                "wilayah": "Kabupaten Bogor"
            },
            "geometry": {
                "type": "Point",
                "coordinates": [
                    106.892500,
                    -6.659000
                ]
            }
        },
        {
            "type": "Feature",
            "properties": {
                "nama_kantor": "Polsek Babakan Madang (Sentul)",
                "tingkat": "Polsek",
                "wilayah": "Kabupaten Bogor"
            },
            "geometry": {
                "type": "Point",
                "coordinates": [
                    106.862300,
                    -6.554000
                ]
            }
        },
        {
            "type": "Feature",
            "properties": {
                "nama_kantor": "Polsek Sukaraja",
                "tingkat": "Polsek",
                "wilayah": "Kabupaten Bogor"
            },
            "geometry": {
                "type": "Point",
                "coordinates": [
                    106.827900,
                    -6.541500
                ]
            }
        },
        {
            "type": "Feature",
            "properties": {
                "nama_kantor": "Polsek Citeureup",
                "tingkat": "Polsek",
                "wilayah": "Kabupaten Bogor"
            },
            "geometry": {
                "type": "Point",
                "coordinates": [
                    106.877000,
                    -6.487500
                ]
            }
        },
        {
            "type": "Feature",
            "properties": {
                "nama_kantor": "Polsek Gunung Putri",
                "tingkat": "Polsek",
                "wilayah": "Kabupaten Bogor"
            },
            "geometry": {
                "type": "Point",
                "coordinates": [
                    106.906500,
                    -6.442100
                ]
            }
        },
        {
            "type": "Feature",
            "properties": {
                "nama_kantor": "Polsek Cileungsi",
                "tingkat": "Polsek",
                "wilayah": "Kabupaten Bogor"
            },
            "geometry": {
                "type": "Point",
                "coordinates": [
                    106.960200,
                    -6.401100
                ]
            }
        },
        {
            "type": "Feature",
            "properties": {
                "nama_kantor": "Polsek Jonggol",
                "tingkat": "Polsek",
                "wilayah": "Kabupaten Bogor"
            },
            "geometry": {
                "type": "Point",
                "coordinates": [
                    107.051000,
                    -6.467800
                ]
            }
        },
        {
            "type": "Feature",
            "properties": {
                "nama_kantor": "Polsek Bojong Gede",
                "tingkat": "Polsek",
                "wilayah": "Kabupaten Bogor"
            },
            "geometry": {
                "type": "Point",
                "coordinates": [
                    106.797200,
                    -6.495300
                ]
            }
        },
        {
            "type": "Feature",
            "properties": {
                "nama_kantor": "Polsek Dramaga",
                "tingkat": "Polsek",
                "wilayah": "Kabupaten Bogor"
            },
            "geometry": {
                "type": "Point",
                "coordinates": [
                    106.732000,
                    -6.574200
                ]
            }
        },
        {
            "type": "Feature",
            "properties": {
                "nama_kantor": "Polsek Ciampea",
                "tingkat": "Polsek",
                "wilayah": "Kabupaten Bogor"
            },
            "geometry": {
                "type": "Point",
                "coordinates": [
                    106.696100,
                    -6.558000
                ]
            }
        },
        {
            "type": "Feature",
            "properties": {
                "nama_kantor": "Polsek Leuwiliang",
                "tingkat": "Polsek",
                "wilayah": "Kabupaten Bogor"
            },
            "geometry": {
                "type": "Point",
                "coordinates": [
                    106.627500,
                    -6.574500
                ]
            }
        },
        {
            "type": "Feature",
            "properties": {
                "nama_kantor": "Polsek Parung",
                "tingkat": "Polsek",
                "wilayah": "Kabupaten Bogor"
            },
            "geometry": {
                "type": "Point",
                "coordinates": [
                    106.731500,
                    -6.425800
                ]
            }
        },
        {
            "type": "Feature",
            "properties": {
                "nama_kantor": "Polsek Kemang",
                "tingkat": "Polsek",
                "wilayah": "Kabupaten Bogor"
            },
            "geometry": {
                "type": "Point",
                "coordinates": [
                    106.753800,
                    -6.502100
                ]
            }
        }
    ]
}